CCSDS_OMM_VERS = 2.0
CREATION_DATE  = 
ORIGINATOR     = 

OBJECT_NAME    = SL-3 R/B
OBJECT_ID      = 1982-079B
CENTER_NAME    = EARTH
REF_FRAME      = TEME
TIME_SYSTEM    = UTC
MEAN_ELEMENT_THEORY = SGP/SGP4

EPOCH          = 2025-11-27T02:44:53.447136
MEAN_MOTION    = 15.23330422
ECCENTRICITY   = .0026344
INCLINATION    = 81.1463
RA_OF_ASC_NODE = 314.0771
ARG_OF_PERICENTER = 149.4490
MEAN_ANOMALY   = 210.8283

EPHEMERIS_TYPE = 0
CLASSIFICATION_TYPE = U
NORAD_CAT_ID   = 13403
ELEMENT_SET_NO = 999
REV_AT_EPOCH   = 36207
BSTAR          = .27834E-3
MEAN_MOTION_DOT = .6698E-4
MEAN_MOTION_DDOT = 0

CCSDS_OMM_VERS = 2.0
CREATION_DATE  = 
ORIGINATOR     = 

OBJECT_NAME    = SL-14 R/B
OBJECT_ID      = 1982-092B
CENTER_NAME    = EARTH
REF_FRAME      = TEME
TIME_SYSTEM    = UTC
MEAN_ELEMENT_THEORY = SGP/SGP4

EPOCH          = 2025-11-27T04:59:55.112064
MEAN_MOTION    = 14.86530958
ECCENTRICITY   = .0018839
INCLINATION    = 82.5691
RA_OF_ASC_NODE = 237.2355
ARG_OF_PERICENTER = 282.6424
MEAN_ANOMALY   = 189.1496

EPHEMERIS_TYPE = 0
CLASSIFICATION_TYPE = U
NORAD_CAT_ID   = 13553
ELEMENT_SET_NO = 999
REV_AT_EPOCH   = 31370
BSTAR          = .70495E-4
MEAN_MOTION_DOT = .65E-5
MEAN_MOTION_DDOT = 0

CCSDS_OMM_VERS = 2.0
CREATION_DATE  = 
ORIGINATOR     = 

OBJECT_NAME    = SL-3 R/B
OBJECT_ID      = 1983-010B
CENTER_NAME    = EARTH
REF_FRAME      = TEME
TIME_SYSTEM    = UTC
MEAN_ELEMENT_THEORY = SGP/SGP4

EPOCH          = 2025-11-26T21:15:01.374912
MEAN_MOTION    = 15.42861398
ECCENTRICITY   = .0017945
INCLINATION    = 81.1029
RA_OF_ASC_NODE = 127.9620
ARG_OF_PERICENTER = 45.9192
MEAN_ANOMALY   = 314.3525

EPHEMERIS_TYPE = 0
CLASSIFICATION_TYPE = U
NORAD_CAT_ID   = 13819
ELEMENT_SET_NO = 999
REV_AT_EPOCH   = 34207
BSTAR          = .33431E-3
MEAN_MOTION_DOT = .14787E-3
MEAN_MOTION_DDOT = 0

CCSDS_OMM_VERS = 2.0
CREATION_DATE  = 
ORIGINATOR     = 

OBJECT_NAME    = SL-3 R/B
OBJECT_ID      = 1983-075B
CENTER_NAME    = EARTH
REF_FRAME      = TEME
TIME_SYSTEM    = UTC
MEAN_ELEMENT_THEORY = SGP/SGP4

EPOCH          = 2025-11-27T03:37:39.461088
MEAN_MOTION    = 15.35685178
ECCENTRICITY   = .0021182
INCLINATION    = 97.6109
RA_OF_ASC_NODE = 327.1169
ARG_OF_PERICENTER = 233.3837
MEAN_ANOMALY   = 126.5458

EPHEMERIS_TYPE = 0
CLASSIFICATION_TYPE = U
NORAD_CAT_ID   = 14208
ELEMENT_SET_NO = 999
REV_AT_EPOCH   = 31440
BSTAR          = .33732E-3
MEAN_MOTION_DOT = .11709E-3
MEAN_MOTION_DDOT = 0

CCSDS_OMM_VERS = 2.0
CREATION_DATE  = 
ORIGINATOR     = 

OBJECT_NAME    = COSMOS 1536
OBJECT_ID      = 1984-013A
CENTER_NAME    = EARTH
REF_FRAME      = TEME
TIME_SYSTEM    = UTC
MEAN_ELEMENT_THEORY = SGP/SGP4

EPOCH          = 2025-11-27T02:20:04.879680
MEAN_MOTION    = 15.22271154
ECCENTRICITY   = .0013289
INCLINATION    = 82.5459
RA_OF_ASC_NODE = 209.6727
ARG_OF_PERICENTER = 287.4039
MEAN_ANOMALY   = 72.5744

EPHEMERIS_TYPE = 0
CLASSIFICATION_TYPE = U
NORAD_CAT_ID   = 14699
ELEMENT_SET_NO = 999
REV_AT_EPOCH   = 25700
BSTAR          = .30623E-3
MEAN_MOTION_DOT = .7094E-4
MEAN_MOTION_DDOT = 0

CCSDS_OMM_VERS = 2.0
CREATION_DATE  = 
ORIGINATOR     = 

OBJECT_NAME    = SL-14 R/B
OBJECT_ID      = 1984-027B
CENTER_NAME    = EARTH
REF_FRAME      = TEME
TIME_SYSTEM    = UTC
MEAN_ELEMENT_THEORY = SGP/SGP4

EPOCH          = 2025-11-26T23:59:04.712640
MEAN_MOTION    = 14.85848930
ECCENTRICITY   = .0016878
INCLINATION    = 82.5413
RA_OF_ASC_NODE = 341.3191
ARG_OF_PERICENTER = 317.4999
MEAN_ANOMALY   = 42.4910

EPHEMERIS_TYPE = 0
CLASSIFICATION_TYPE = U
NORAD_CAT_ID   = 14820
ELEMENT_SET_NO = 999
REV_AT_EPOCH   = 23238
BSTAR          = .66943E-4
MEAN_MOTION_DOT = .608E-5
MEAN_MOTION_DDOT = 0

CCSDS_OMM_VERS = 2.0
CREATION_DATE  = 
ORIGINATOR     = 

OBJECT_NAME    = SL-8 R/B
OBJECT_ID      = 1985-006B
CENTER_NAME    = EARTH
REF_FRAME      = TEME
TIME_SYSTEM    = UTC
MEAN_ELEMENT_THEORY = SGP/SGP4

EPOCH          = 2025-11-26T19:51:38.516832
MEAN_MOTION    = 14.37706494
ECCENTRICITY   = .0017997
INCLINATION    = 74.0455
RA_OF_ASC_NODE = 90.4091
ARG_OF_PERICENTER = 27.3151
MEAN_ANOMALY   = 88.9858

EPHEMERIS_TYPE = 0
CLASSIFICATION_TYPE = U
NORAD_CAT_ID   = 15483
ELEMENT_SET_NO = 999
REV_AT_EPOCH   = 13924
BSTAR          = .12863E-3
MEAN_MOTION_DOT = .361E-5
MEAN_MOTION_DDOT = 0

CCSDS_OMM_VERS = 2.0
CREATION_DATE  = 
ORIGINATOR     = 

OBJECT_NAME    = SL-12 R/B(2)
OBJECT_ID      = 1985-042D
CENTER_NAME    = EARTH
REF_FRAME      = TEME
TIME_SYSTEM    = UTC
MEAN_ELEMENT_THEORY = SGP/SGP4

EPOCH          = 2025-11-27T04:53:52.848960
MEAN_MOTION    = 14.21944288
ECCENTRICITY   = .0037674
INCLINATION    = 71.1080
RA_OF_ASC_NODE = 304.2409
ARG_OF_PERICENTER = 284.2417
MEAN_ANOMALY   = 162.1830

EPHEMERIS_TYPE = 0
CLASSIFICATION_TYPE = U
NORAD_CAT_ID   = 15772
ELEMENT_SET_NO = 999
REV_AT_EPOCH   = 9982
BSTAR          = .10981E-3
MEAN_MOTION_DOT = .196E-5
MEAN_MOTION_DDOT = 0

CCSDS_OMM_VERS = 2.0
CREATION_DATE  = 
ORIGINATOR     = 

OBJECT_NAME    = SL-14 R/B
OBJECT_ID      = 1985-069B
CENTER_NAME    = EARTH
REF_FRAME      = TEME
TIME_SYSTEM    = UTC
MEAN_ELEMENT_THEORY = SGP/SGP4

EPOCH          = 2025-11-26T22:45:07.275168
MEAN_MOTION    = 14.86295049
ECCENTRICITY   = .0019109
INCLINATION    = 82.5250
RA_OF_ASC_NODE = 121.5488
ARG_OF_PERICENTER = 168.4166
MEAN_ANOMALY   = 191.7494

EPHEMERIS_TYPE = 0
CLASSIFICATION_TYPE = U
NORAD_CAT_ID   = 15945
ELEMENT_SET_NO = 999
REV_AT_EPOCH   = 15757
BSTAR          = .78419E-4
MEAN_MOTION_DOT = .717E-5
MEAN_MOTION_DDOT = 0

CCSDS_OMM_VERS = 2.0
CREATION_DATE  = 
ORIGINATOR     = 

OBJECT_NAME    = SL-16 R/B
OBJECT_ID      = 1985-097B
CENTER_NAME    = EARTH
REF_FRAME      = TEME
TIME_SYSTEM    = UTC
MEAN_ELEMENT_THEORY = SGP/SGP4

EPOCH          = 2025-11-27T02:20:25.617408
MEAN_MOTION    = 14.16582568
ECCENTRICITY   = .0005794
INCLINATION    = 71.0039
RA_OF_ASC_NODE = 356.5357
ARG_OF_PERICENTER = 36.8915
MEAN_ANOMALY   = 354.7571

EPHEMERIS_TYPE = 0
CLASSIFICATION_TYPE = U
NORAD_CAT_ID   = 16182
ELEMENT_SET_NO = 999
REV_AT_EPOCH   = 7270
BSTAR          = .14573E-4
MEAN_MOTION_DOT = -.19E-6
MEAN_MOTION_DDOT = 0

CCSDS_OMM_VERS = 2.0
CREATION_DATE  = 
ORIGINATOR     = 

OBJECT_NAME    = SL-14 R/B
OBJECT_ID      = 1986-006B
CENTER_NAME    = EARTH
REF_FRAME      = TEME
TIME_SYSTEM    = UTC
MEAN_ELEMENT_THEORY = SGP/SGP4

EPOCH          = 2025-11-27T00:24:59.764032
MEAN_MOTION    = 14.86639430
ECCENTRICITY   = .0075255
INCLINATION    = 82.5272
RA_OF_ASC_NODE = 356.3460
ARG_OF_PERICENTER = 252.7062
MEAN_ANOMALY   = 106.5912

EPHEMERIS_TYPE = 0
CLASSIFICATION_TYPE = U
NORAD_CAT_ID   = 16496
ELEMENT_SET_NO = 999
REV_AT_EPOCH   = 13395
BSTAR          = .88142E-4
MEAN_MOTION_DOT = .849E-5
MEAN_MOTION_DDOT = 0

CCSDS_OMM_VERS = 2.0
CREATION_DATE  = 
ORIGINATOR     = 

OBJECT_NAME    = COSMOS 1743
OBJECT_ID      = 1986-034A
CENTER_NAME    = EARTH
REF_FRAME      = TEME
TIME_SYSTEM    = UTC
MEAN_ELEMENT_THEORY = SGP/SGP4

EPOCH          = 2025-11-27T01:07:37.792416
MEAN_MOTION    = 15.51065739
ECCENTRICITY   = .0005369
INCLINATION    = 82.5356
RA_OF_ASC_NODE = 180.8763
ARG_OF_PERICENTER = 323.4043
MEAN_ANOMALY   = 36.6841

EPHEMERIS_TYPE = 0
CLASSIFICATION_TYPE = U
NORAD_CAT_ID   = 16719
ELEMENT_SET_NO = 999
REV_AT_EPOCH   = 16430
BSTAR          = .49036E-3
MEAN_MOTION_DOT = .28634E-3
MEAN_MOTION_DDOT = 0

