SL-3 R/B                
1 13403U 82079B   25331.11450749  .00006698  00000+0  27834-3 0  9997
2 13403  81.1463 314.0771 0026344 149.4490 210.8283 15.23330422362076
SL-14 R/B               
1 13553U 82092B   25331.20827676  .00000650  00000+0  70495-4 0  9999
2 13553  82.5691 237.2355 0018839 282.6424 189.1496 14.86530958313705
SL-3 R/B                
1 13819U 83010B   25330.88543258  .00014787  00000+0  33431-3 0  9993
2 13819  81.1029 127.9620 0017945  45.9192 314.3525 15.42861398342074
SL-3 R/B                
1 14208U 83075B   25331.15115117  .00011709  00000+0  33732-3 0  9992
2 14208  97.6109 327.1169 0021182 233.3837 126.5458 15.35685178314403
COSMOS 1536             
1 14699U 84013A   25331.09727870  .00007094  00000+0  30623-3 0  9995
2 14699  82.5459 209.6727 0013289 287.4039  72.5744 15.22271154257006
SL-14 R/B               
1 14820U 84027B   25330.99936010  .00000608  00000+0  66943-4 0  9991
2 14820  82.5413 341.3191 0016878 317.4999  42.4910 14.85848930232382
SL-8 R/B                
1 15483U 85006B   25330.82752913  .00000361  00000+0  12863-3 0  9992
2 15483  74.0455  90.4091 0017997  27.3151  88.9858 14.37706494139243
SL-12 R/B(2)            
1 15772U 85042D   25331.20408390  .00000196  00000+0  10981-3 0  9998
2 15772  71.1080 304.2409 0037674 284.2417 162.1830 14.21944288 99820
SL-14 R/B               
1 15945U 85069B   25330.94800087  .00000717  00000+0  78419-4 0  9998
2 15945  82.5250 121.5488 0019109 168.4166 191.7494 14.86295049157577
SL-16 R/B               
1 16182U 85097B   25331.09751872 -.00000019  00000+0  14573-4 0  9994
2 16182  71.0039 356.5357 0005794  36.8915 354.7571 14.16582568 72705
SL-14 R/B               
1 16496U 86006B   25331.01735838  .00000849  00000+0  88142-4 0  9992
2 16496  82.5272 356.3460 0075255 252.7062 106.5912 14.86639430133958
COSMOS 1743             
1 16719U 86034A   25331.04696519  .00028634  00000+0  49036-3 0  9996
2 16719  82.5356 180.8763 0005369 323.4043  36.6841 15.51065739164304
